HAWK-A                  
1 43765U 18099H   26196.10718699  .00004044  00000+0  16247-3 0  9991
2 43765  97.3897 247.9822 0034714 184.2471 175.8478 15.24964443417352
HAWK-B                  
1 43794U 18099AN  26196.09655298  .00003480  00000+0  14860-3 0  9998
2 43794  97.3948 247.3278 0031352 202.4031 157.5838 15.23114243417283
HAWK-C                  
1 43799U 18099AT  26196.93653104  .00004732  00000+0  16932-3 0  9993
2 43799  97.3872 249.8562 0040381 181.1971 178.9179 15.28497622418304
HAWK-2C                 
1 47502U 21006CT  26196.70812346  .00003875  00000+0  11634-3 0  9992
2 47502  97.2264 240.4527 0008660  99.2843 260.9380 15.34993459303870
HAWK-2A                 
1 47505U 21006CW  26196.84071628  .00004973  00000+0  14859-3 0  9992
2 47505  97.2304 241.2772 0008210 102.4445 257.7718 15.35014526303896
HAWK-2B                 
1 47508U 21006CZ  26196.50827137  .00004497  00000+0  13402-3 0  9996
2 47508  97.2176 239.2384 0008754 101.6650 258.5577 15.35139410303841
HAWK-3B                 
1 48931U 21059BE  26196.54584909  .00033868  00000+0  26118-3 0  9998
2 48931  97.6631  35.9858 0004548 196.9727 163.1384 15.71890222282307
HAWK-3C                 
1 48948U 21059BX  26196.86383115  .00033494  00000+0  25811-3 0  9991
2 48948  97.6745  42.0695 0004709 196.1704 163.9409 15.71908500282355
HAWK-3A                 
1 48957U 21059CG  26196.80005911  .00034148  00000+0  26313-3 0  9995
2 48957  97.6690  39.1813 0004656 198.8090 161.3001 15.71906504282342
HAWK-5C                 
1 52754U 22057Y   26196.93102429  .00011472  00000+0  19006-3 0  9996
2 52754  97.6616 358.4771 0002730 343.5481  16.5682 15.52341704230808
HAWK-5B                 
1 52756U 22057AA  26196.93084180  .00011066  00000+0  18340-3 0  9990
2 52756  97.6629 356.8306 0003403 329.0972  31.0079 15.52338181230809
HAWK-5A                 
1 52757U 22057AB  26196.93064414  .00011735  00000+0  19437-3 0  9990
2 52757  97.6624 357.6608 0003270 334.7696  25.3396 15.52340460230808
HAWK-6B                 
1 55324U 23011A   26196.37860636  .00002510  00000+0  11216-3 0  9990
2 55324  40.4971 187.6092 0004189 241.6135 118.4252 15.23154469192143
HAWK-6C                 
1 55326U 23011C   26196.37797491  .00002273  00000+0  10236-3 0  9997
2 55326  40.4961 184.4487 0004714 234.6057 125.4312 15.23155670192157
HAWK-6A                 
1 55327U 23011D   26196.37801227  .00002383  00000+0  10690-3 0  9997
2 55327  40.4971 186.0753 0004284 231.8799 128.1625 15.23155263192152
HAWK-7A                 
1 56191U 23054P   26196.93409108  .00003065  00000+0  11613-3 0  9992
2 56191  97.2661  83.5406 0001327 329.2546  30.8616 15.27637086181419
